ONEWEB-0120             
1 47266U 20100J   25356.58744585 -.00000270  00000+0 -78687-3 0  9994
2 47266  87.8919  25.7608 0001637  96.0684 264.0631 13.12446692241565
ONEWEB-0121             
1 47267U 20100K   25356.57546147 -.00004214  00000+0 -11749-1 0  9994
2 47267  87.8935  25.7324 0001797  88.0919 272.0415 13.12481310241473
ONEWEB-0122             
1 47268U 20100L   25356.49404599 -.00006262  00000+0 -17445-1 0  9994
2 47268  87.8939  25.7512 0001637  90.3295 269.8021 13.12482654241371
ONEWEB-0123             
1 47269U 20100M   25356.56531852 -.00008271  00000+0 -23030-1 0  9995
2 47269  87.8922  25.7620 0001746  99.9276 260.2050 13.12492783241527
ONEWEB-0124             
1 47270U 20100N   25356.55513862  .00000602  00000+0  16375-2 0  9990
2 47270  87.8910  25.7689 0001551  91.9681 268.1625 13.12419166241403
ONEWEB-0125             
1 47271U 20100P   25356.38065672  .00021214  00000+0  58932-1 0  9999
2 47271  87.8950  25.7660 0001994  80.1110 280.0244 13.12287233241447
ONEWEB-0126             
1 47272U 20100Q   25356.47732807  .00001531  00000+0  42196-2 0  9997
2 47272  87.8931  25.7713 0001593  97.2124 262.9185 13.12435446241528
ONEWEB-0127             
1 47273U 20100R   25356.06210066  .00002488  00000+0  68815-2 0  9999
2 47273  87.8924  25.8639 0001643  95.1131 265.0185 13.12424137241495
