<?xml version="1.0" encoding="UTF-8"?>
<ndm xmlns:xsi="http://www.w3.org/2001/XMLSchema-instance" xsi:noNamespaceSchemaLocation="https://sanaregistry.org/r/ndmxml_unqualified/ndmxml-2.0.0-master-2.0.xsd">
<omm id="CCSDS_OMM_VERS" version="2.0">
<header><CREATION_DATE/><ORIGINATOR/></header><body><segment><metadata><OBJECT_NAME>ONEWEB-0120</OBJECT_NAME><OBJECT_ID>2020-100J</OBJECT_ID><CENTER_NAME>EARTH</CENTER_NAME><REF_FRAME>TEME</REF_FRAME><TIME_SYSTEM>UTC</TIME_SYSTEM><MEAN_ELEMENT_THEORY>SGP4</MEAN_ELEMENT_THEORY></metadata><data><meanElements><EPOCH>2025-12-22T14:05:55.321440</EPOCH><MEAN_MOTION>13.12446692</MEAN_MOTION><ECCENTRICITY>.0001637</ECCENTRICITY><INCLINATION>87.8919</INCLINATION><RA_OF_ASC_NODE>25.7608</RA_OF_ASC_NODE><ARG_OF_PERICENTER>96.0684</ARG_OF_PERICENTER><MEAN_ANOMALY>264.0631</MEAN_ANOMALY></meanElements><tleParameters><EPHEMERIS_TYPE>0</EPHEMERIS_TYPE><CLASSIFICATION_TYPE>U</CLASSIFICATION_TYPE><NORAD_CAT_ID>47266</NORAD_CAT_ID><ELEMENT_SET_NO>999</ELEMENT_SET_NO><REV_AT_EPOCH>24156</REV_AT_EPOCH><BSTAR>-.78686835E-3</BSTAR><MEAN_MOTION_DOT>-.27E-5</MEAN_MOTION_DOT><MEAN_MOTION_DDOT>0</MEAN_MOTION_DDOT></tleParameters></data></segment></body></omm>
<omm id="CCSDS_OMM_VERS" version="2.0">
<header><CREATION_DATE/><ORIGINATOR/></header><body><segment><metadata><OBJECT_NAME>ONEWEB-0121</OBJECT_NAME><OBJECT_ID>2020-100K</OBJECT_ID><CENTER_NAME>EARTH</CENTER_NAME><REF_FRAME>TEME</REF_FRAME><TIME_SYSTEM>UTC</TIME_SYSTEM><MEAN_ELEMENT_THEORY>SGP4</MEAN_ELEMENT_THEORY></metadata><data><meanElements><EPOCH>2025-12-22T13:48:39.871008</EPOCH><MEAN_MOTION>13.12481310</MEAN_MOTION><ECCENTRICITY>.00017971</ECCENTRICITY><INCLINATION>87.8935</INCLINATION><RA_OF_ASC_NODE>25.7324</RA_OF_ASC_NODE><ARG_OF_PERICENTER>88.0919</ARG_OF_PERICENTER><MEAN_ANOMALY>272.0415</MEAN_ANOMALY></meanElements><tleParameters><EPHEMERIS_TYPE>0</EPHEMERIS_TYPE><CLASSIFICATION_TYPE>U</CLASSIFICATION_TYPE><NORAD_CAT_ID>47267</NORAD_CAT_ID><ELEMENT_SET_NO>999</ELEMENT_SET_NO><REV_AT_EPOCH>24147</REV_AT_EPOCH><BSTAR>-.11748558E-1</BSTAR><MEAN_MOTION_DOT>-.4214E-4</MEAN_MOTION_DOT><MEAN_MOTION_DDOT>0</MEAN_MOTION_DDOT></tleParameters></data></segment></body></omm>
<omm id="CCSDS_OMM_VERS" version="2.0">
<header><CREATION_DATE/><ORIGINATOR/></header><body><segment><metadata><OBJECT_NAME>ONEWEB-0122</OBJECT_NAME><OBJECT_ID>2020-100L</OBJECT_ID><CENTER_NAME>EARTH</CENTER_NAME><REF_FRAME>TEME</REF_FRAME><TIME_SYSTEM>UTC</TIME_SYSTEM><MEAN_ELEMENT_THEORY>SGP4</MEAN_ELEMENT_THEORY></metadata><data><meanElements><EPOCH>2025-12-22T11:51:25.573536</EPOCH><MEAN_MOTION>13.12482654</MEAN_MOTION><ECCENTRICITY>.00016378</ECCENTRICITY><INCLINATION>87.8939</INCLINATION><RA_OF_ASC_NODE>25.7512</RA_OF_ASC_NODE><ARG_OF_PERICENTER>90.3295</ARG_OF_PERICENTER><MEAN_ANOMALY>269.8021</MEAN_ANOMALY></meanElements><tleParameters><EPHEMERIS_TYPE>0</EPHEMERIS_TYPE><CLASSIFICATION_TYPE>U</CLASSIFICATION_TYPE><NORAD_CAT_ID>47268</NORAD_CAT_ID><ELEMENT_SET_NO>999</ELEMENT_SET_NO><REV_AT_EPOCH>24137</REV_AT_EPOCH><BSTAR>-.17444922E-1</BSTAR><MEAN_MOTION_DOT>-.6262E-4</MEAN_MOTION_DOT><MEAN_MOTION_DDOT>0</MEAN_MOTION_DDOT></tleParameters></data></segment></body></omm>
<omm id="CCSDS_OMM_VERS" version="2.0">
<header><CREATION_DATE/><ORIGINATOR/></header><body><segment><metadata><OBJECT_NAME>ONEWEB-0123</OBJECT_NAME><OBJECT_ID>2020-100M</OBJECT_ID><CENTER_NAME>EARTH</CENTER_NAME><REF_FRAME>TEME</REF_FRAME><TIME_SYSTEM>UTC</TIME_SYSTEM><MEAN_ELEMENT_THEORY>SGP4</MEAN_ELEMENT_THEORY></metadata><data><meanElements><EPOCH>2025-12-22T13:34:03.520128</EPOCH><MEAN_MOTION>13.12492783</MEAN_MOTION><ECCENTRICITY>.00017468</ECCENTRICITY><INCLINATION>87.8922</INCLINATION><RA_OF_ASC_NODE>25.7620</RA_OF_ASC_NODE><ARG_OF_PERICENTER>99.9276</ARG_OF_PERICENTER><MEAN_ANOMALY>260.2050</MEAN_ANOMALY></meanElements><tleParameters><EPHEMERIS_TYPE>0</EPHEMERIS_TYPE><CLASSIFICATION_TYPE>U</CLASSIFICATION_TYPE><NORAD_CAT_ID>47269</NORAD_CAT_ID><ELEMENT_SET_NO>999</ELEMENT_SET_NO><REV_AT_EPOCH>24152</REV_AT_EPOCH><BSTAR>-.23030445E-1</BSTAR><MEAN_MOTION_DOT>-.8271E-4</MEAN_MOTION_DOT><MEAN_MOTION_DDOT>0</MEAN_MOTION_DDOT></tleParameters></data></segment></body></omm>
<omm id="CCSDS_OMM_VERS" version="2.0">
<header><CREATION_DATE/><ORIGINATOR/></header><body><segment><metadata><OBJECT_NAME>ONEWEB-0124</OBJECT_NAME><OBJECT_ID>2020-100N</OBJECT_ID><CENTER_NAME>EARTH</CENTER_NAME><REF_FRAME>TEME</REF_FRAME><TIME_SYSTEM>UTC</TIME_SYSTEM><MEAN_ELEMENT_THEORY>SGP4</MEAN_ELEMENT_THEORY></metadata><data><meanElements><EPOCH>2025-12-22T13:19:23.976768</EPOCH><MEAN_MOTION>13.12419166</MEAN_MOTION><ECCENTRICITY>.00015519</ECCENTRICITY><INCLINATION>87.8910</INCLINATION><RA_OF_ASC_NODE>25.7689</RA_OF_ASC_NODE><ARG_OF_PERICENTER>91.9681</ARG_OF_PERICENTER><MEAN_ANOMALY>268.1625</MEAN_ANOMALY></meanElements><tleParameters><EPHEMERIS_TYPE>0</EPHEMERIS_TYPE><CLASSIFICATION_TYPE>U</CLASSIFICATION_TYPE><NORAD_CAT_ID>47270</NORAD_CAT_ID><ELEMENT_SET_NO>999</ELEMENT_SET_NO><REV_AT_EPOCH>24140</REV_AT_EPOCH><BSTAR>.1637536E-2</BSTAR><MEAN_MOTION_DOT>.602E-5</MEAN_MOTION_DOT><MEAN_MOTION_DDOT>0</MEAN_MOTION_DDOT></tleParameters></data></segment></body></omm>
<omm id="CCSDS_OMM_VERS" version="2.0">
<header><CREATION_DATE/><ORIGINATOR/></header><body><segment><metadata><OBJECT_NAME>ONEWEB-0125</OBJECT_NAME><OBJECT_ID>2020-100P</OBJECT_ID><CENTER_NAME>EARTH</CENTER_NAME><REF_FRAME>TEME</REF_FRAME><TIME_SYSTEM>UTC</TIME_SYSTEM><MEAN_ELEMENT_THEORY>SGP4</MEAN_ELEMENT_THEORY></metadata><data><meanElements><EPOCH>2025-12-22T09:08:08.740608</EPOCH><MEAN_MOTION>13.12287233</MEAN_MOTION><ECCENTRICITY>.00019941</ECCENTRICITY><INCLINATION>87.8950</INCLINATION><RA_OF_ASC_NODE>25.7660</RA_OF_ASC_NODE><ARG_OF_PERICENTER>80.1110</ARG_OF_PERICENTER><MEAN_ANOMALY>280.0244</MEAN_ANOMALY></meanElements><tleParameters><EPHEMERIS_TYPE>0</EPHEMERIS_TYPE><CLASSIFICATION_TYPE>U</CLASSIFICATION_TYPE><NORAD_CAT_ID>47271</NORAD_CAT_ID><ELEMENT_SET_NO>999</ELEMENT_SET_NO><REV_AT_EPOCH>24144</REV_AT_EPOCH><BSTAR>.58931686E-1</BSTAR><MEAN_MOTION_DOT>.21214E-3</MEAN_MOTION_DOT><MEAN_MOTION_DDOT>0</MEAN_MOTION_DDOT></tleParameters></data></segment></body></omm>
<omm id="CCSDS_OMM_VERS" version="2.0">
<header><CREATION_DATE/><ORIGINATOR/></header><body><segment><metadata><OBJECT_NAME>ONEWEB-0126</OBJECT_NAME><OBJECT_ID>2020-100Q</OBJECT_ID><CENTER_NAME>EARTH</CENTER_NAME><REF_FRAME>TEME</REF_FRAME><TIME_SYSTEM>UTC</TIME_SYSTEM><MEAN_ELEMENT_THEORY>SGP4</MEAN_ELEMENT_THEORY></metadata><data><meanElements><EPOCH>2025-12-22T11:27:21.145248</EPOCH><MEAN_MOTION>13.12435446</MEAN_MOTION><ECCENTRICITY>.00015931</ECCENTRICITY><INCLINATION>87.8931</INCLINATION><RA_OF_ASC_NODE>25.7713</RA_OF_ASC_NODE><ARG_OF_PERICENTER>97.2124</ARG_OF_PERICENTER><MEAN_ANOMALY>262.9185</MEAN_ANOMALY></meanElements><tleParameters><EPHEMERIS_TYPE>0</EPHEMERIS_TYPE><CLASSIFICATION_TYPE>U</CLASSIFICATION_TYPE><NORAD_CAT_ID>47272</NORAD_CAT_ID><ELEMENT_SET_NO>999</ELEMENT_SET_NO><REV_AT_EPOCH>24152</REV_AT_EPOCH><BSTAR>.42196016E-2</BSTAR><MEAN_MOTION_DOT>.1531E-4</MEAN_MOTION_DOT><MEAN_MOTION_DDOT>0</MEAN_MOTION_DDOT></tleParameters></data></segment></body></omm>
<omm id="CCSDS_OMM_VERS" version="2.0">
<header><CREATION_DATE/><ORIGINATOR/></header><body><segment><metadata><OBJECT_NAME>ONEWEB-0127</OBJECT_NAME><OBJECT_ID>2020-100R</OBJECT_ID><CENTER_NAME>EARTH</CENTER_NAME><REF_FRAME>TEME</REF_FRAME><TIME_SYSTEM>UTC</TIME_SYSTEM><MEAN_ELEMENT_THEORY>SGP4</MEAN_ELEMENT_THEORY></metadata><data><meanElements><EPOCH>2025-12-22T01:29:25.497024</EPOCH><MEAN_MOTION>13.12424137</MEAN_MOTION><ECCENTRICITY>.0001643</ECCENTRICITY><INCLINATION>87.8924</INCLINATION><RA_OF_ASC_NODE>25.8639</RA_OF_ASC_NODE><ARG_OF_PERICENTER>95.1131</ARG_OF_PERICENTER><MEAN_ANOMALY>265.0185</MEAN_ANOMALY></meanElements><tleParameters><EPHEMERIS_TYPE>0</EPHEMERIS_TYPE><CLASSIFICATION_TYPE>U</CLASSIFICATION_TYPE><NORAD_CAT_ID>47273</NORAD_CAT_ID><ELEMENT_SET_NO>999</ELEMENT_SET_NO><REV_AT_EPOCH>24149</REV_AT_EPOCH><BSTAR>.68815157E-2</BSTAR><MEAN_MOTION_DOT>.2488E-4</MEAN_MOTION_DOT><MEAN_MOTION_DDOT>0</MEAN_MOTION_DDOT></tleParameters></data></segment></body></omm>

</ndm>
